CARTOSAT-2E             
1 42767U 17036C   26159.81152428  .00003113  00000+0  15088-3 0  9999
2 42767  97.4277 219.7517 0003086 357.8604   2.2617 15.19256310496871
IRIDIUM 113             
1 42803U 17039A   26159.51929631  .00000137  00000+0  41913-4 0  9998
2 42803  86.3964 325.8032 0002315  90.0226 270.1235 14.34217921469944
NORSAT 2                
1 42828U 17042D   26159.74295437  .00010997  00000+0  48696-3 0  9993
2 42828  97.4041 333.3193 0010901  83.6372 276.6105 15.21764539486453
TECHNOSAT               
1 42829U 17042E   26159.40607312  .00002780  00000+0  19990-3 0  9992
2 42829  97.4267 317.3998 0018857 121.9012 238.4052 15.04901037485389
FLYING LAPTOP           
1 42831U 17042G   26159.85316412  .00003633  00000+0  28731-3 0  9993
2 42831  97.4659 315.7097 0019156 148.8782 211.3581 15.01092236485201
LEMUR-2-GREENBERG       
1 42837U 17042N   26159.46075249  .00014878  00000+0  49735-3 0  9996
2 42837  97.3822 340.1280 0009369  44.0124 316.1861 15.31058959487053
LEMUR-2-FURIAUS         
1 42840U 17042R   26159.44835442  .00015692  00000+0  54249-3 0  9998
2 42840  97.3774 338.0911 0008524  95.9048 264.3165 15.29962356486874
CORVUS BC2              
1 42846U 17042X   26159.42592979  .00002769  00000+0  19240-3 0  9990
2 42846  97.4061 321.1181 0014203 137.0473 223.1867 15.06240547485746
CORVUS BC1              
1 42847U 17042Y   26159.42153111  .00002771  00000+0  19174-3 0  9991
2 42847  97.4085 321.9220 0013306 115.8711 244.3891 15.06407941485775
VRSS-2                  
1 42954U 17060A   26159.87785671  .00001349  00000+0  17935-3 0  9994
2 42954  97.6517 197.9792 0018301 123.7388 236.5572 14.81182565467222
MOHAMMED VI-A           
1 43005U 17070A   26159.87853256  .00000286  00000+0  47777-4 0  9995
2 43005  97.9554 232.3242 0001533  70.9154 289.2222 14.77057562462754
FENGYUN 3D              
1 43010U 17072A   26159.83132985  .00000329  00000+0  17736-3 0  9997
2 43010  99.0126 134.1027 0002629  75.5711 284.5756 14.19738730443809
NOAA 20 (JPSS-1)        
1 43013U 17073A   26159.82491030  .00000054  00000+0  46431-4 0  9999
2 43013  98.7770  99.3620 0000447  42.4915 317.6295 14.19510272443286
MAKERSAT 0              
1 43016U 17073D   26158.64340438  .00021201  00000+0  58054-3 0  9996
2 43016  97.4640  41.0894 0106135 307.5668  51.5969 15.31756991465000
RADFXSAT (FOX-1B)       
1 43017U 17073E   26159.34389375  .00007664  00000+0  33533-3 0  9990
2 43017  97.4721  26.7398 0150895 359.9259   0.1924 15.12571253464059
JILIN-1 04              
1 43022U 17074A   26159.78173688  .00013706  00000+0  32092-3 0  9996
2 43022  97.4846 269.1723 0003402 208.0400 152.0664 15.42232112472970
JILIN-1 05              
1 43023U 17074B   26159.83581380  .00008262  00000+0  25559-3 0  9996
2 43023  97.4852 265.8786 0003807 250.8163 109.2667 15.33746055472726
JILIN-1 06              
1 43024U 17074C   26159.80650132  .00005297  00000+0  16551-3 0  9993
2 43024  97.4780 262.8689 0005306 267.9680  92.0955 15.33603630472556
IRIDIUM 116             
1 43072U 17083C   26159.49392512  .00000203  00000+0  65289-4 0  9991
2 43072  86.3958 325.6370 0001855  94.1641 265.9767 14.34217695442922
IRIDIUM 130             
1 43073U 17083D   26159.74128553  .00000251  00000+0  82589-4 0  9997
2 43073  86.3968 325.8081 0001953  88.0059 272.1360 14.34218525442909
LKW-2                   
1 43080U 17084A   26159.83338904  .00005826  00000+0  22768-3 0  9994
2 43080  97.1198 200.0201 0000162 242.7653 117.3569 15.26229609470415
SUPERVIEW-1 03          
1 43099U 18002A   26159.84386684  .00017524  00000+0  43902-3 0  9995
2 43099  97.3129 244.6962 0046688 209.5400 150.3207 15.38978745467083
LKW-3                   
1 43146U 18006A   26159.84099897  .00013988  00000+0  41297-3 0  9994
2 43146  97.6607 320.0919 0002735   0.5413 359.5832 15.35090113467436
ASNARO-2                
1 43152U 18007A   26159.83865659  .00009847  00000+0  42869-3 0  9993
2 43152  97.3978 166.8961 0001624  87.2684 272.8738 15.22423292466145
JILIN-1 07              
1 43159U 18008E   26159.81210075  .00008747  00000+0  26290-3 0  9993
2 43159  97.1779 179.9646 0010238  89.7250 270.5167 15.34582707463712
JILIN-1 08              
1 43160U 18008F   26159.80693296  .00005773  00000+0  17985-3 0  9991
2 43160  97.1810 179.2848 0008065 102.6918 257.5227 15.33614806463669
