OBJECT_NAME,OBJECT_ID,EPOCH,MEAN_MOTION,ECCENTRICITY,INCLINATION,RA_OF_ASC_NODE,ARG_OF_PERICENTER,MEAN_ANOMALY,EPHEMERIS_TYPE,CLASSIFICATION_TYPE,NORAD_CAT_ID,ELEMENT_SET_NO,REV_AT_EPOCH,BSTAR,MEAN_MOTION_DOT,MEAN_MOTION_DDOT
CARTOSAT-2E,2017-036C,2026-06-08T19:28:35.697792,15.19256310,.0003086,97.4277,219.7517,357.8604,2.2617,0,U,42767,999,49687,.15088E-3,.3113E-4,0
IRIDIUM 113,2017-039A,2026-06-08T12:27:47.201184,14.34217921,.0002316,86.3964,325.8032,90.0226,270.1235,0,U,42803,999,46994,.41913E-4,.137E-5,0
NORSAT 2,2017-042D,2026-06-08T17:49:51.257568,15.21764539,.0010901,97.4041,333.3193,83.6372,276.6105,0,U,42828,999,48645,.48696E-3,.10997E-3,0
TECHNOSAT,2017-042E,2026-06-08T09:44:44.716704,15.04901037,.0018858,97.4267,317.3998,121.9012,238.4052,0,U,42829,999,48538,.1999E-3,.278E-4,0
FLYING LAPTOP,2017-042G,2026-06-08T20:28:33.379968,15.01092236,.0019156,97.4659,315.7097,148.8782,211.3581,0,U,42831,999,48520,.28731E-3,.3633E-4,0
LEMUR-2-GREENBERG,2017-042N,2026-06-08T11:03:29.015136,15.31058959,.0009369,97.3822,340.1280,44.0124,316.1861,0,U,42837,999,48705,.49735E-3,.14878E-3,0
LEMUR-2-FURIAUS,2017-042R,2026-06-08T10:45:37.821024,15.29962356,.0008524,97.3774,338.0911,95.9048,264.3165,0,U,42840,999,48687,.54249E-3,.15692E-3,0
CORVUS BC2,2017-042X,2026-06-08T10:13:20.332992,15.06240546,.0014203,97.4061,321.1181,137.0473,223.1867,0,U,42846,999,48574,.1924E-3,.2769E-4,0
CORVUS BC1,2017-042Y,2026-06-08T10:07:00.287040,15.06407941,.0013307,97.4085,321.9220,115.8711,244.3891,0,U,42847,999,48577,.19174E-3,.2771E-4,0
VRSS-2,2017-060A,2026-06-08T21:04:06.819744,14.81182565,.0018301,97.6517,197.9792,123.7388,236.5572,0,U,42954,999,46722,.17935E-3,.1349E-4,0
MOHAMMED VI-A,2017-070A,2026-06-08T21:05:05.213184,14.77057562,.0001533,97.9554,232.3242,70.9154,289.2222,0,U,43005,999,46275,.47777E-4,.286E-5,0
FENGYUN 3D,2017-072A,2026-06-08T19:57:06.899040,14.19738730,.0002629,99.0126,134.1027,75.5711,284.5756,0,U,43010,999,44380,.17736E-3,.329E-5,0
NOAA 20 (JPSS-1),2017-073A,2026-06-08T19:47:52.249920,14.19510272,.0000447,98.7770,99.3620,42.4915,317.6295,0,U,43013,999,44328,.46431E-4,.54E-6,0
MAKERSAT 0,2017-073D,2026-06-07T15:26:30.138432,15.31756991,.01061352,97.4640,41.0894,307.5668,51.5969,0,U,43016,999,46500,.58053729E-3,.21201E-3,0
RADFXSAT (FOX-1B),2017-073E,2026-06-08T08:15:12.420000,15.12571253,.0150896,97.4721,26.7398,359.9259,0.1924,0,U,43017,999,46405,.33533E-3,.7664E-4,0
JILIN-1 04,2017-074A,2026-06-08T18:45:42.066432,15.42232112,.0003402,97.4846,269.1723,208.0400,152.0664,0,U,43022,999,47297,.32092E-3,.13706E-3,0
JILIN-1 05,2017-074B,2026-06-08T20:03:34.312320,15.33746055,.0003807,97.4852,265.8786,250.8163,109.2667,0,U,43023,999,47272,.25559E-3,.8262E-4,0
JILIN-1 06,2017-074C,2026-06-08T19:21:21.714048,15.33603630,.0005306,97.4780,262.8689,267.9680,92.0955,0,U,43024,999,47255,.16551E-3,.5297E-4,0
IRIDIUM 116,2017-083C,2026-06-08T11:51:15.130368,14.34217695,.0001855,86.3958,325.6370,94.1641,265.9767,0,U,43072,999,44292,.65289E-4,.203E-5,0
IRIDIUM 130,2017-083D,2026-06-08T17:47:27.069792,14.34218525,.0001953,86.3968,325.8081,88.0059,272.1360,0,U,43073,999,44290,.82589E-4,.251E-5,0
LKW-2,2017-084A,2026-06-08T20:00:04.813056,15.26229609,.0000162,97.1198,200.0201,242.7653,117.3569,0,U,43080,999,47041,.22768E-3,.5826E-4,0
SUPERVIEW-1 03,2018-002A,2026-06-08T20:15:10.094976,15.38978745,.0046688,97.3129,244.6962,209.5400,150.3207,0,U,43099,999,46708,.43902E-3,.17524E-3,0
LKW-3,2018-006A,2026-06-08T20:11:02.311008,15.35090113,.0002735,97.6607,320.0919,0.5413,359.5832,0,U,43146,999,46743,.41297E-3,.13988E-3,0
ASNARO-2,2018-007A,2026-06-08T20:07:39.929376,15.22423292,.0001624,97.3978,166.8961,87.2684,272.8738,0,U,43152,999,46614,.42869E-3,.9847E-4,0
JILIN-1 07,2018-008E,2026-06-08T19:29:25.504800,15.34582707,.0010238,97.1779,179.9646,89.7250,270.5167,0,U,43159,999,46371,.2629E-3,.8747E-4,0
JILIN-1 08,2018-008F,2026-06-08T19:21:59.007744,15.33614806,.0008065,97.1810,179.2848,102.6918,257.5227,0,U,43160,999,46366,.17985E-3,.5773E-4,0
